IRIDIUM 171             
1 43929U 19002H   25362.08892434  .00000289  00000+0  96148-4 0  9995
2 43929  86.3966  65.3871 0002449  94.9861 265.1614 14.34221063364434
IRIDIUM 170             
1 43930U 19002J   25361.61465397  .00001134  00000+0  17592-3 0  9994
2 43930  86.6078  65.2943 0002288  91.2627 268.8852 14.72269492374012
IRIDIUM 167             
1 43931U 19002K   25362.15234977  .00000022  00000+0  74706-6 0  9991
2 43931  86.3951  65.0937 0002531  97.8536 262.2947 14.34217671364442
IRIDIUM 181             
1 56726U 23068S   25362.07084418  .00000543  00000+0  15543-3 0  9997
2 56726  86.4525 128.3240 0002092  82.5126 277.6313 14.43312577137754
IRIDIUM 177             
1 56727U 23068T   25362.15530147  .00001550  00000+0  20041-3 0  9990
2 56727  86.1952  50.0074 0002109  87.2034 272.9429 14.80247949141067
IRIDIUM 174             
1 56728U 23068U   25361.67028542  .00001193  00000+0  18527-3 0  9997
2 56728  86.6085  65.4011 0002049  92.4463 267.6988 14.72264423140784
IRIDIUM 178             
1 56729U 23068V   25362.00919046  .00001943  00000+0  25221-3 0  9996
2 56729  86.6541  96.9203 0002481  90.1820 269.9686 14.80247803141048
IRIDIUM 179             
1 56730U 23068W   25361.73342416  .00001810  00000+0  23479-3 0  9994
2 56730  86.6787 105.5044 0002411  89.7411 270.4086 14.80240226141004
