<?xml version="1.0" encoding="UTF-8"?>
<ndm xmlns:xsi="http://www.w3.org/2001/XMLSchema-instance" xsi:noNamespaceSchemaLocation="https://sanaregistry.org/r/ndmxml_unqualified/ndmxml-2.0.0-master-2.0.xsd">
<omm id="CCSDS_OMM_VERS" version="2.0">
<header><CREATION_DATE/><ORIGINATOR/></header><body><segment><metadata><OBJECT_NAME>IRIDIUM 171</OBJECT_NAME><OBJECT_ID>2019-002H</OBJECT_ID><CENTER_NAME>EARTH</CENTER_NAME><REF_FRAME>TEME</REF_FRAME><TIME_SYSTEM>UTC</TIME_SYSTEM><MEAN_ELEMENT_THEORY>SGP4</MEAN_ELEMENT_THEORY></metadata><data><meanElements><EPOCH>2025-12-28T02:08:03.062976</EPOCH><MEAN_MOTION>14.34221063</MEAN_MOTION><ECCENTRICITY>.0002449</ECCENTRICITY><INCLINATION>86.3966</INCLINATION><RA_OF_ASC_NODE>65.3871</RA_OF_ASC_NODE><ARG_OF_PERICENTER>94.9861</ARG_OF_PERICENTER><MEAN_ANOMALY>265.1614</MEAN_ANOMALY></meanElements><tleParameters><EPHEMERIS_TYPE>0</EPHEMERIS_TYPE><CLASSIFICATION_TYPE>U</CLASSIFICATION_TYPE><NORAD_CAT_ID>43929</NORAD_CAT_ID><ELEMENT_SET_NO>999</ELEMENT_SET_NO><REV_AT_EPOCH>36443</REV_AT_EPOCH><BSTAR>.96148E-4</BSTAR><MEAN_MOTION_DOT>.289E-5</MEAN_MOTION_DOT><MEAN_MOTION_DDOT>0</MEAN_MOTION_DDOT></tleParameters></data></segment></body></omm>
<omm id="CCSDS_OMM_VERS" version="2.0">
<header><CREATION_DATE/><ORIGINATOR/></header><body><segment><metadata><OBJECT_NAME>IRIDIUM 170</OBJECT_NAME><OBJECT_ID>2019-002J</OBJECT_ID><CENTER_NAME>EARTH</CENTER_NAME><REF_FRAME>TEME</REF_FRAME><TIME_SYSTEM>UTC</TIME_SYSTEM><MEAN_ELEMENT_THEORY>SGP4</MEAN_ELEMENT_THEORY></metadata><data><meanElements><EPOCH>2025-12-27T14:45:06.103008</EPOCH><MEAN_MOTION>14.72269492</MEAN_MOTION><ECCENTRICITY>.00022884</ECCENTRICITY><INCLINATION>86.6078</INCLINATION><RA_OF_ASC_NODE>65.2943</RA_OF_ASC_NODE><ARG_OF_PERICENTER>91.2627</ARG_OF_PERICENTER><MEAN_ANOMALY>268.8852</MEAN_ANOMALY></meanElements><tleParameters><EPHEMERIS_TYPE>0</EPHEMERIS_TYPE><CLASSIFICATION_TYPE>U</CLASSIFICATION_TYPE><NORAD_CAT_ID>43930</NORAD_CAT_ID><ELEMENT_SET_NO>999</ELEMENT_SET_NO><REV_AT_EPOCH>37401</REV_AT_EPOCH><BSTAR>.1759224E-3</BSTAR><MEAN_MOTION_DOT>.1134E-4</MEAN_MOTION_DOT><MEAN_MOTION_DDOT>0</MEAN_MOTION_DDOT></tleParameters></data></segment></body></omm>
<omm id="CCSDS_OMM_VERS" version="2.0">
<header><CREATION_DATE/><ORIGINATOR/></header><body><segment><metadata><OBJECT_NAME>IRIDIUM 167</OBJECT_NAME><OBJECT_ID>2019-002K</OBJECT_ID><CENTER_NAME>EARTH</CENTER_NAME><REF_FRAME>TEME</REF_FRAME><TIME_SYSTEM>UTC</TIME_SYSTEM><MEAN_ELEMENT_THEORY>SGP4</MEAN_ELEMENT_THEORY></metadata><data><meanElements><EPOCH>2025-12-28T03:39:23.020128</EPOCH><MEAN_MOTION>14.34217671</MEAN_MOTION><ECCENTRICITY>.0002531</ECCENTRICITY><INCLINATION>86.3951</INCLINATION><RA_OF_ASC_NODE>65.0937</RA_OF_ASC_NODE><ARG_OF_PERICENTER>97.8536</ARG_OF_PERICENTER><MEAN_ANOMALY>262.2947</MEAN_ANOMALY></meanElements><tleParameters><EPHEMERIS_TYPE>0</EPHEMERIS_TYPE><CLASSIFICATION_TYPE>U</CLASSIFICATION_TYPE><NORAD_CAT_ID>43931</NORAD_CAT_ID><ELEMENT_SET_NO>999</ELEMENT_SET_NO><REV_AT_EPOCH>36444</REV_AT_EPOCH><BSTAR>.74706E-6</BSTAR><MEAN_MOTION_DOT>.22E-6</MEAN_MOTION_DOT><MEAN_MOTION_DDOT>0</MEAN_MOTION_DDOT></tleParameters></data></segment></body></omm>
<omm id="CCSDS_OMM_VERS" version="2.0">
<header><CREATION_DATE/><ORIGINATOR/></header><body><segment><metadata><OBJECT_NAME>IRIDIUM 181</OBJECT_NAME><OBJECT_ID>2023-068S</OBJECT_ID><CENTER_NAME>EARTH</CENTER_NAME><REF_FRAME>TEME</REF_FRAME><TIME_SYSTEM>UTC</TIME_SYSTEM><MEAN_ELEMENT_THEORY>SGP4</MEAN_ELEMENT_THEORY></metadata><data><meanElements><EPOCH>2025-12-28T01:42:00.937152</EPOCH><MEAN_MOTION>14.43312577</MEAN_MOTION><ECCENTRICITY>.0002092</ECCENTRICITY><INCLINATION>86.4525</INCLINATION><RA_OF_ASC_NODE>128.3240</RA_OF_ASC_NODE><ARG_OF_PERICENTER>82.5126</ARG_OF_PERICENTER><MEAN_ANOMALY>277.6313</MEAN_ANOMALY></meanElements><tleParameters><EPHEMERIS_TYPE>0</EPHEMERIS_TYPE><CLASSIFICATION_TYPE>U</CLASSIFICATION_TYPE><NORAD_CAT_ID>56726</NORAD_CAT_ID><ELEMENT_SET_NO>999</ELEMENT_SET_NO><REV_AT_EPOCH>13775</REV_AT_EPOCH><BSTAR>.15543E-3</BSTAR><MEAN_MOTION_DOT>.543E-5</MEAN_MOTION_DOT><MEAN_MOTION_DDOT>0</MEAN_MOTION_DDOT></tleParameters></data></segment></body></omm>
<omm id="CCSDS_OMM_VERS" version="2.0">
<header><CREATION_DATE/><ORIGINATOR/></header><body><segment><metadata><OBJECT_NAME>IRIDIUM 177</OBJECT_NAME><OBJECT_ID>2023-068T</OBJECT_ID><CENTER_NAME>EARTH</CENTER_NAME><REF_FRAME>TEME</REF_FRAME><TIME_SYSTEM>UTC</TIME_SYSTEM><MEAN_ELEMENT_THEORY>SGP4</MEAN_ELEMENT_THEORY></metadata><data><meanElements><EPOCH>2025-12-28T03:43:38.047008</EPOCH><MEAN_MOTION>14.80247949</MEAN_MOTION><ECCENTRICITY>.0002109</ECCENTRICITY><INCLINATION>86.1952</INCLINATION><RA_OF_ASC_NODE>50.0074</RA_OF_ASC_NODE><ARG_OF_PERICENTER>87.2034</ARG_OF_PERICENTER><MEAN_ANOMALY>272.9429</MEAN_ANOMALY></meanElements><tleParameters><EPHEMERIS_TYPE>0</EPHEMERIS_TYPE><CLASSIFICATION_TYPE>U</CLASSIFICATION_TYPE><NORAD_CAT_ID>56727</NORAD_CAT_ID><ELEMENT_SET_NO>999</ELEMENT_SET_NO><REV_AT_EPOCH>14106</REV_AT_EPOCH><BSTAR>.20041E-3</BSTAR><MEAN_MOTION_DOT>.155E-4</MEAN_MOTION_DOT><MEAN_MOTION_DDOT>0</MEAN_MOTION_DDOT></tleParameters></data></segment></body></omm>
<omm id="CCSDS_OMM_VERS" version="2.0">
<header><CREATION_DATE/><ORIGINATOR/></header><body><segment><metadata><OBJECT_NAME>IRIDIUM 174</OBJECT_NAME><OBJECT_ID>2023-068U</OBJECT_ID><CENTER_NAME>EARTH</CENTER_NAME><REF_FRAME>TEME</REF_FRAME><TIME_SYSTEM>UTC</TIME_SYSTEM><MEAN_ELEMENT_THEORY>SGP4</MEAN_ELEMENT_THEORY></metadata><data><meanElements><EPOCH>2025-12-27T16:05:12.660288</EPOCH><MEAN_MOTION>14.72264423</MEAN_MOTION><ECCENTRICITY>.00020497</ECCENTRICITY><INCLINATION>86.6085</INCLINATION><RA_OF_ASC_NODE>65.4011</RA_OF_ASC_NODE><ARG_OF_PERICENTER>92.4463</ARG_OF_PERICENTER><MEAN_ANOMALY>267.6988</MEAN_ANOMALY></meanElements><tleParameters><EPHEMERIS_TYPE>0</EPHEMERIS_TYPE><CLASSIFICATION_TYPE>U</CLASSIFICATION_TYPE><NORAD_CAT_ID>56728</NORAD_CAT_ID><ELEMENT_SET_NO>999</ELEMENT_SET_NO><REV_AT_EPOCH>14078</REV_AT_EPOCH><BSTAR>.18526549E-3</BSTAR><MEAN_MOTION_DOT>.1193E-4</MEAN_MOTION_DOT><MEAN_MOTION_DDOT>0</MEAN_MOTION_DDOT></tleParameters></data></segment></body></omm>
<omm id="CCSDS_OMM_VERS" version="2.0">
<header><CREATION_DATE/><ORIGINATOR/></header><body><segment><metadata><OBJECT_NAME>IRIDIUM 178</OBJECT_NAME><OBJECT_ID>2023-068V</OBJECT_ID><CENTER_NAME>EARTH</CENTER_NAME><REF_FRAME>TEME</REF_FRAME><TIME_SYSTEM>UTC</TIME_SYSTEM><MEAN_ELEMENT_THEORY>SGP4</MEAN_ELEMENT_THEORY></metadata><data><meanElements><EPOCH>2025-12-28T00:13:14.055744</EPOCH><MEAN_MOTION>14.80247803</MEAN_MOTION><ECCENTRICITY>.0002481</ECCENTRICITY><INCLINATION>86.6541</INCLINATION><RA_OF_ASC_NODE>96.9203</RA_OF_ASC_NODE><ARG_OF_PERICENTER>90.1820</ARG_OF_PERICENTER><MEAN_ANOMALY>269.9686</MEAN_ANOMALY></meanElements><tleParameters><EPHEMERIS_TYPE>0</EPHEMERIS_TYPE><CLASSIFICATION_TYPE>U</CLASSIFICATION_TYPE><NORAD_CAT_ID>56729</NORAD_CAT_ID><ELEMENT_SET_NO>999</ELEMENT_SET_NO><REV_AT_EPOCH>14104</REV_AT_EPOCH><BSTAR>.25221E-3</BSTAR><MEAN_MOTION_DOT>.1943E-4</MEAN_MOTION_DOT><MEAN_MOTION_DDOT>0</MEAN_MOTION_DDOT></tleParameters></data></segment></body></omm>
<omm id="CCSDS_OMM_VERS" version="2.0">
<header><CREATION_DATE/><ORIGINATOR/></header><body><segment><metadata><OBJECT_NAME>IRIDIUM 179</OBJECT_NAME><OBJECT_ID>2023-068W</OBJECT_ID><CENTER_NAME>EARTH</CENTER_NAME><REF_FRAME>TEME</REF_FRAME><TIME_SYSTEM>UTC</TIME_SYSTEM><MEAN_ELEMENT_THEORY>SGP4</MEAN_ELEMENT_THEORY></metadata><data><meanElements><EPOCH>2025-12-27T17:36:07.847424</EPOCH><MEAN_MOTION>14.80240226</MEAN_MOTION><ECCENTRICITY>.00024116</ECCENTRICITY><INCLINATION>86.6787</INCLINATION><RA_OF_ASC_NODE>105.5044</RA_OF_ASC_NODE><ARG_OF_PERICENTER>89.7411</ARG_OF_PERICENTER><MEAN_ANOMALY>270.4086</MEAN_ANOMALY></meanElements><tleParameters><EPHEMERIS_TYPE>0</EPHEMERIS_TYPE><CLASSIFICATION_TYPE>U</CLASSIFICATION_TYPE><NORAD_CAT_ID>56730</NORAD_CAT_ID><ELEMENT_SET_NO>999</ELEMENT_SET_NO><REV_AT_EPOCH>14100</REV_AT_EPOCH><BSTAR>.23479099E-3</BSTAR><MEAN_MOTION_DOT>.181E-4</MEAN_MOTION_DOT><MEAN_MOTION_DDOT>0</MEAN_MOTION_DDOT></tleParameters></data></segment></body></omm>
</ndm>
